[{"OBJECT_NAME":"ONEWEB-0588","OBJECT_ID":"2023-004P","EPOCH":"2026-05-18T01:28:02.127072","MEAN_MOTION":13.18686684,"ECCENTRICITY":0.0001831,"INCLINATION":87.9164,"RA_OF_ASC_NODE":341.4675,"ARG_OF_PERICENTER":104.3239,"MEAN_ANOMALY":255.8096,"EPHEMERIS_TYPE":0,"CLASSIFICATION_TYPE":"U","NORAD_CAT_ID":55153,"ELEMENT_SET_NO":999,"REV_AT_EPOCH":16572,"BSTAR":9.625000000000001e-05,"MEAN_MOTION_DOT":5.1e-07,"MEAN_MOTION_DDOT":0.0},{"OBJECT_NAME":"ONEWEB-0598","OBJECT_ID":"2023-004Q","EPOCH":"2026-05-18T04:12:53.903232","MEAN_MOTION":13.11418717,"ECCENTRICITY":0.0001114,"INCLINATION":87.8912,"RA_OF_ASC_NODE":27.0394,"ARG_OF_PERICENTER":69.8753,"MEAN_ANOMALY":290.2494,"EPHEMERIS_TYPE":0,"CLASSIFICATION_TYPE":"U","NORAD_CAT_ID":55154,"ELEMENT_SET_NO":999,"REV_AT_EPOCH":16196,"BSTAR":-0.0014248,"MEAN_MOTION_DOT":-4.92e-06,"MEAN_MOTION_DDOT":0.0},{"OBJECT_NAME":"ONEWEB-0599","OBJECT_ID":"2023-004R","EPOCH":"2026-05-18T04:22:04.008576","MEAN_MOTION":13.17650615,"ECCENTRICITY":0.0001793,"INCLINATION":87.9159,"RA_OF_ASC_NODE":11.8307,"ARG_OF_PERICENTER":75.6313,"MEAN_ANOMALY":284.5017,"EPHEMERIS_TYPE":0,"CLASSIFICATION_TYPE":"U","NORAD_CAT_ID":55155,"ELEMENT_SET_NO":999,"REV_AT_EPOCH":16353,"BSTAR":0.00021525,"MEAN_MOTION_DOT":9.6e-07,"MEAN_MOTION_DDOT":0.0},{"OBJECT_NAME":"ONEWEB-0614","OBJECT_ID":"2023-004S","EPOCH":"2026-05-18T04:05:33.887040","MEAN_MOTION":13.11414642,"ECCENTRICITY":0.0001968,"INCLINATION":87.8911,"RA_OF_ASC_NODE":27.0491,"ARG_OF_PERICENTER":86.1586,"MEAN_ANOMALY":273.9767,"EPHEMERIS_TYPE":0,"CLASSIFICATION_TYPE":"U","NORAD_CAT_ID":55156,"ELEMENT_SET_NO":999,"REV_AT_EPOCH":16190,"BSTAR":-0.0010671,"MEAN_MOTION_DOT":-3.65e-06,"MEAN_MOTION_DDOT":0.0},{"OBJECT_NAME":"ONEWEB-0616","OBJECT_ID":"2023-004T","EPOCH":"2026-05-18T03:33:28.914048","MEAN_MOTION":13.1764859,"ECCENTRICITY":0.0002179,"INCLINATION":87.9161,"RA_OF_ASC_NODE":11.8402,"ARG_OF_PERICENTER":57.8637,"MEAN_ANOMALY":302.2706,"EPHEMERIS_TYPE":0,"CLASSIFICATION_TYPE":"U","NORAD_CAT_ID":55157,"ELEMENT_SET_NO":999,"REV_AT_EPOCH":16374,"BSTAR":6.7573e-07,"MEAN_MOTION_DOT":1.3e-07,"MEAN_MOTION_DDOT":0.0},{"OBJECT_NAME":"ONEWEB-0617","OBJECT_ID":"2023-004U","EPOCH":"2026-05-18T03:48:28.948896","MEAN_MOTION":13.11413992,"ECCENTRICITY":0.0001943,"INCLINATION":87.8915,"RA_OF_ASC_NODE":27.0409,"ARG_OF_PERICENTER":93.9832,"MEAN_ANOMALY":266.1518,"EPHEMERIS_TYPE":0,"CLASSIFICATION_TYPE":"U","NORAD_CAT_ID":55158,"ELEMENT_SET_NO":999,"REV_AT_EPOCH":16192,"BSTAR":0.00024091000000000002,"MEAN_MOTION_DOT":9.8e-07,"MEAN_MOTION_DDOT":0.0},{"OBJECT_NAME":"ONEWEB-0618","OBJECT_ID":"2023-004V","EPOCH":"2026-05-18T03:56:28.330656","MEAN_MOTION":15.1288439,"ECCENTRICITY":0.0014505,"INCLINATION":86.9113,"RA_OF_ASC_NODE":189.8177,"ARG_OF_PERICENTER":54.426,"MEAN_ANOMALY":305.8329,"EPHEMERIS_TYPE":0,"CLASSIFICATION_TYPE":"U","NORAD_CAT_ID":55159,"ELEMENT_SET_NO":999,"REV_AT_EPOCH":17772,"BSTAR":0.00018937,"MEAN_MOTION_DOT":3.372e-05,"MEAN_MOTION_DDOT":0.0},{"OBJECT_NAME":"ONEWEB-0619","OBJECT_ID":"2023-004W","EPOCH":"2026-05-18T04:19:38.931744","MEAN_MOTION":13.17649255,"ECCENTRICITY":0.0002278,"INCLINATION":87.917,"RA_OF_ASC_NODE":11.8123,"ARG_OF_PERICENTER":83.9229,"MEAN_ANOMALY":276.2162,"EPHEMERIS_TYPE":0,"CLASSIFICATION_TYPE":"U","NORAD_CAT_ID":55160,"ELEMENT_SET_NO":999,"REV_AT_EPOCH":16364,"BSTAR":0.00023509,"MEAN_MOTION_DOT":1.04e-06,"MEAN_MOTION_DDOT":0.0},{"OBJECT_NAME":"ONEWEB-0620","OBJECT_ID":"2023-004X","EPOCH":"2026-05-18T03:41:10.036032","MEAN_MOTION":13.11414597,"ECCENTRICITY":0.0001568,"INCLINATION":87.8909,"RA_OF_ASC_NODE":27.0521,"ARG_OF_PERICENTER":84.7501,"MEAN_ANOMALY":275.3806,"EPHEMERIS_TYPE":0,"CLASSIFICATION_TYPE":"U","NORAD_CAT_ID":55161,"ELEMENT_SET_NO":999,"REV_AT_EPOCH":16189,"BSTAR":0.00079999,"MEAN_MOTION_DOT":2.96e-06,"MEAN_MOTION_DDOT":0.0},{"OBJECT_NAME":"ONEWEB-0621","OBJECT_ID":"2023-004Y","EPOCH":"2026-05-18T04:20:12.158592","MEAN_MOTION":13.1141569,"ECCENTRICITY":0.0002015,"INCLINATION":87.8925,"RA_OF_ASC_NODE":27.0325,"ARG_OF_PERICENTER":86.0898,"MEAN_ANOMALY":274.046,"EPHEMERIS_TYPE":0,"CLASSIFICATION_TYPE":"U","NORAD_CAT_ID":55162,"ELEMENT_SET_NO":999,"REV_AT_EPOCH":16187,"BSTAR":-0.0013271,"MEAN_MOTION_DOT":-4.58e-06,"MEAN_MOTION_DDOT":0.0},{"OBJECT_NAME":"ONEWEB-0622","OBJECT_ID":"2023-004Z","EPOCH":"2026-05-17T22:57:55.497312","MEAN_MOTION":13.11416251,"ECCENTRICITY":0.0001898,"INCLINATION":87.8927,"RA_OF_ASC_NODE":27.0792,"ARG_OF_PERICENTER":103.7247,"MEAN_ANOMALY":256.4092,"EPHEMERIS_TYPE":0,"CLASSIFICATION_TYPE":"U","NORAD_CAT_ID":55163,"ELEMENT_SET_NO":999,"REV_AT_EPOCH":16183,"BSTAR":-0.001226,"MEAN_MOTION_DOT":-4.22e-06,"MEAN_MOTION_DDOT":0.0},{"OBJECT_NAME":"ONEWEB-0623","OBJECT_ID":"2023-004AA","EPOCH":"2026-05-18T04:12:20.493216","MEAN_MOTION":13.17650942,"ECCENTRICITY":0.0002413,"INCLINATION":87.9156,"RA_OF_ASC_NODE":11.8472,"ARG_OF_PERICENTER":97.6828,"MEAN_ANOMALY":262.4578,"EPHEMERIS_TYPE":0,"CLASSIFICATION_TYPE":"U","NORAD_CAT_ID":55164,"ELEMENT_SET_NO":999,"REV_AT_EPOCH":16363,"BSTAR":0.00020433999999999998,"MEAN_MOTION_DOT":9.2e-07,"MEAN_MOTION_DDOT":0.0},{"OBJECT_NAME":"ONEWEB-0624","OBJECT_ID":"2023-004AB","EPOCH":"2026-05-18T04:02:40.934112","MEAN_MOTION":13.12927579,"ECCENTRICITY":0.0001891,"INCLINATION":87.8962,"RA_OF_ASC_NODE":356.5597,"ARG_OF_PERICENTER":88.5766,"MEAN_ANOMALY":271.5579,"EPHEMERIS_TYPE":0,"CLASSIFICATION_TYPE":"U","NORAD_CAT_ID":55165,"ELEMENT_SET_NO":999,"REV_AT_EPOCH":16413,"BSTAR":-0.0011211,"MEAN_MOTION_DOT":-3.93e-06,"MEAN_MOTION_DDOT":0.0},{"OBJECT_NAME":"ONEWEB-0625","OBJECT_ID":"2023-004AC","EPOCH":"2026-05-18T03:57:46.915776","MEAN_MOTION":13.17648542,"ECCENTRICITY":0.0001891,"INCLINATION":87.9158,"RA_OF_ASC_NODE":11.844,"ARG_OF_PERICENTER":78.9125,"MEAN_ANOMALY":281.2219,"EPHEMERIS_TYPE":0,"CLASSIFICATION_TYPE":"U","NORAD_CAT_ID":55166,"ELEMENT_SET_NO":999,"REV_AT_EPOCH":16362,"BSTAR":-3.6412e-05,"MEAN_MOTION_DOT":-1e-08,"MEAN_MOTION_DDOT":0.0},{"OBJECT_NAME":"ONEWEB-0626","OBJECT_ID":"2023-004AD","EPOCH":"2026-05-18T03:43:10.786080","MEAN_MOTION":13.17649962,"ECCENTRICITY":0.0001363,"INCLINATION":87.9159,"RA_OF_ASC_NODE":11.8457,"ARG_OF_PERICENTER":83.1543,"MEAN_ANOMALY":276.9743,"EPHEMERIS_TYPE":0,"CLASSIFICATION_TYPE":"U","NORAD_CAT_ID":55167,"ELEMENT_SET_NO":999,"REV_AT_EPOCH":16362,"BSTAR":0.00021023,"MEAN_MOTION_DOT":9.4e-07,"MEAN_MOTION_DDOT":0.0},{"OBJECT_NAME":"ONEWEB-0627","OBJECT_ID":"2023-004AE","EPOCH":"2026-05-18T03:26:10.608576","MEAN_MOTION":13.17650862,"ECCENTRICITY":0.0002218,"INCLINATION":87.9156,"RA_OF_ASC_NODE":11.8483,"ARG_OF_PERICENTER":94.2502,"MEAN_ANOMALY":265.8883,"EPHEMERIS_TYPE":0,"CLASSIFICATION_TYPE":"U","NORAD_CAT_ID":55168,"ELEMENT_SET_NO":999,"REV_AT_EPOCH":16362,"BSTAR":0.00019611000000000002,"MEAN_MOTION_DOT":8.9e-07,"MEAN_MOTION_DDOT":0.0}]