ONEWEB-0588             
1 55153U 23004P   26138.06113573  .00000051  00000+0  96250-4 0  9995
2 55153  87.9164 341.4675 0001831 104.3239 255.8096 13.18686684165728
ONEWEB-0598             
1 55154U 23004Q   26138.17562388 -.00000492  00000+0 -14248-2 0  9996
2 55154  87.8912  27.0394 0001114  69.8753 290.2494 13.11418717161964
ONEWEB-0599             
1 55155U 23004R   26138.18199084  .00000096  00000+0  21525-3 0  9992
2 55155  87.9159  11.8307 0001793  75.6313 284.5017 13.17650615163537
ONEWEB-0614             
1 55156U 23004S   26138.17053110 -.00000365  00000+0 -10671-2 0  9991
2 55156  87.8911  27.0491 0001968  86.1586 273.9767 13.11414642161904
ONEWEB-0616             
1 55157U 23004T   26138.14825132  .00000013  00000+0  67573-6 0  9995
2 55157  87.9161  11.8402 0002179  57.8637 302.2706 13.17648590163743
ONEWEB-0617             
1 55158U 23004U   26138.15866839  .00000098  00000+0  24091-3 0  9994
2 55158  87.8915  27.0409 0001943  93.9832 266.1518 13.11413992161929
ONEWEB-0618             
1 55159U 23004V   26138.16421679  .00003372  00000+0  18937-3 0  9995
2 55159  86.9113 189.8177 0014505  54.4260 305.8329 15.12884390177727
ONEWEB-0619             
1 55160U 23004W   26138.18031171  .00000104  00000+0  23509-3 0  9994
2 55160  87.9170  11.8123 0002278  83.9229 276.2162 13.17649255163648
ONEWEB-0620             
1 55161U 23004X   26138.15358838  .00000296  00000+0  79999-3 0  9990
2 55161  87.8909  27.0521 0001568  84.7501 275.3806 13.11414597161895
ONEWEB-0621             
1 55162U 23004Y   26138.18069628 -.00000458  00000+0 -13271-2 0  9992
2 55162  87.8925  27.0325 0002015  86.0898 274.0460 13.11415690161873
ONEWEB-0622             
1 55163U 23004Z   26137.95689233 -.00000422  00000+0 -12260-2 0  9995
2 55163  87.8927  27.0792 0001898 103.7247 256.4092 13.11416251161832
ONEWEB-0623             
1 55164U 23004AA  26138.17523719  .00000092  00000+0  20434-3 0  9991
2 55164  87.9156  11.8472 0002413  97.6828 262.4578 13.17650942163633
ONEWEB-0624             
1 55165U 23004AB  26138.16852933 -.00000393  00000+0 -11211-2 0  9992
2 55165  87.8962 356.5597 0001891  88.5766 271.5579 13.12927579164130
ONEWEB-0625             
1 55166U 23004AC  26138.16512634 -.00000001  00000+0 -36412-4 0  9992
2 55166  87.9158  11.8440 0001891  78.9125 281.2219 13.17648542163626
ONEWEB-0626             
1 55167U 23004AD  26138.15498595  .00000094  00000+0  21023-3 0  9992
2 55167  87.9159  11.8457 0001363  83.1543 276.9743 13.17649962163622
ONEWEB-0627             
1 55168U 23004AE  26138.14317834  .00000089  00000+0  19611-3 0  9992
2 55168  87.9156  11.8483 0002218  94.2502 265.8883 13.17650862163620
